ONEWEB-0509             
1 54127U 22138Q   25272.73707359  .00000079  00000+0  16387-3 0  9997
2 54127  87.9291 356.7436 0001685 101.2213 258.9109 13.19726687142451
ONEWEB-0510             
1 54128U 22138R   25273.13419361 -.00000024  00000+0 -92084-4 0  9997
2 54128  87.9242 326.2948 0002394  91.9186 268.2222 13.20771812144959
ONEWEB-0511             
1 54129U 22138S   25272.73389630  .00000052  00000+0  98387-4 0  9999
2 54129  87.9290 356.7490 0001716  91.7009 268.4321 13.19727494142485
ONEWEB-0512             
1 54130U 22138T   25273.25673484  .00000113  00000+0  25115-3 0  9998
2 54130  87.9270 356.6816 0001403 101.4793 258.6498 13.19729527142528
ONEWEB-0513             
1 54131U 22138U   25272.68891073  .00000147  00000+0  33212-3 0  9995
2 54131  87.9292 356.7545 0001292  87.4963 272.6319 13.20316384142344
ONEWEB-0514             
1 54132U 22138V   25273.19671504  .00000092  00000+0  19632-3 0  9997
2 54132  87.9287 356.6703 0001903  97.7520 262.3829 13.19725786142537
ONEWEB-0515             
1 54133U 22138W   25273.12154962  .00000031  00000+0  43540-4 0  9994
2 54133  87.9253 326.2774 0002747 105.6297 254.5140 13.20772534144973
ONEWEB-0516             
1 54134U 22138X   25273.24725783  .00000063  00000+0  12606-3 0  9996
2 54134  87.9271 356.6886 0001786 106.1403 253.9926 13.19726095142547
ONEWEB-0517             
1 54135U 22138Y   25272.69600442 -.00000016  00000+0 -72278-4 0  9991
2 54135  87.9290 356.7653 0001787  89.3097 270.8240 13.19726512142477
ONEWEB-0518             
1 54136U 22138Z   25273.24566527  .00000074  00000+0  15236-3 0  9991
2 54136  87.9277 356.6901 0001679 102.7815 257.3506 13.19726992142541
ONEWEB-0519             
1 54137U 22138AA  25273.19513274 -.00000002  00000+0 -38288-4 0  9993
2 54137  87.9286 356.6571 0001744  92.4705 267.6628 13.19726177142545
ONEWEB-0520             
1 54138U 22138AB  25273.22986812  .00000032  00000+0  48412-4 0  9991
2 54138  87.9288 356.6544 0001502 103.9089 256.2211 13.19727083142531
ONEWEB-0521             
1 54139U 22138AC  25273.26305517  .00000195  00000+0  45544-3 0  9995
2 54139  87.9286 356.6341 0001876  92.6817 267.4531 13.19724928142480
ONEWEB-0522             
1 54140U 22138AD  25273.24250246  .00000066  00000+0  13290-3 0  9993
2 54140  87.9286 356.6390 0001762 101.9835 258.1495 13.19728091142520
ONEWEB-0523             
1 54141U 22138AE  25273.18469906  .00000020  00000+0  17440-4 0  9994
2 54141  87.9243 326.2899 0002735  92.1084 268.0363 13.20772791144983
ONEWEB-0524             
1 54142U 22138AF  25273.09789094  .00000105  00000+0  22642-3 0  9991
2 54142  87.9245 326.3080 0002631 111.3128 248.8287 13.20769839144976
