[{"OBJECT_NAME":"ONEWEB-0509","OBJECT_ID":"2022-138Q","EPOCH":"2025-09-29T17:41:23.158176","MEAN_MOTION":13.19726687,"ECCENTRICITY":0.00016851,"INCLINATION":87.9291,"RA_OF_ASC_NODE":356.7436,"ARG_OF_PERICENTER":101.2213,"MEAN_ANOMALY":258.9109,"EPHEMERIS_TYPE":0,"CLASSIFICATION_TYPE":"U","NORAD_CAT_ID":54127,"ELEMENT_SET_NO":999,"REV_AT_EPOCH":14245,"BSTAR":0.00016387213,"MEAN_MOTION_DOT":7.9e-7,"MEAN_MOTION_DDOT":0},{"OBJECT_NAME":"ONEWEB-0510","OBJECT_ID":"2022-138R","EPOCH":"2025-09-30T03:13:14.327904","MEAN_MOTION":13.20771812,"ECCENTRICITY":0.00023948,"INCLINATION":87.9242,"RA_OF_ASC_NODE":326.2948,"ARG_OF_PERICENTER":91.9186,"MEAN_ANOMALY":268.2222,"EPHEMERIS_TYPE":0,"CLASSIFICATION_TYPE":"U","NORAD_CAT_ID":54128,"ELEMENT_SET_NO":999,"REV_AT_EPOCH":14495,"BSTAR":-9.2083897e-5,"MEAN_MOTION_DOT":-2.4e-7,"MEAN_MOTION_DDOT":0},{"OBJECT_NAME":"ONEWEB-0511","OBJECT_ID":"2022-138S","EPOCH":"2025-09-29T17:36:48.640320","MEAN_MOTION":13.19727494,"ECCENTRICITY":0.00017163,"INCLINATION":87.929,"RA_OF_ASC_NODE":356.749,"ARG_OF_PERICENTER":91.7009,"MEAN_ANOMALY":268.4321,"EPHEMERIS_TYPE":0,"CLASSIFICATION_TYPE":"U","NORAD_CAT_ID":54129,"ELEMENT_SET_NO":999,"REV_AT_EPOCH":14248,"BSTAR":9.8386684e-5,"MEAN_MOTION_DOT":5.2e-7,"MEAN_MOTION_DDOT":0},{"OBJECT_NAME":"ONEWEB-0512","OBJECT_ID":"2022-138T","EPOCH":"2025-09-30T06:09:41.890176","MEAN_MOTION":13.19729527,"ECCENTRICITY":0.00014036,"INCLINATION":87.927,"RA_OF_ASC_NODE":356.6816,"ARG_OF_PERICENTER":101.4793,"MEAN_ANOMALY":258.6498,"EPHEMERIS_TYPE":0,"CLASSIFICATION_TYPE":"U","NORAD_CAT_ID":54130,"ELEMENT_SET_NO":999,"REV_AT_EPOCH":14252,"BSTAR":0.0002511466,"MEAN_MOTION_DOT":1.13e-6,"MEAN_MOTION_DDOT":0},{"OBJECT_NAME":"ONEWEB-0513","OBJECT_ID":"2022-138U","EPOCH":"2025-09-29T16:32:01.887072","MEAN_MOTION":13.20316384,"ECCENTRICITY":0.00012925,"INCLINATION":87.9292,"RA_OF_ASC_NODE":356.7545,"ARG_OF_PERICENTER":87.4963,"MEAN_ANOMALY":272.6319,"EPHEMERIS_TYPE":0,"CLASSIFICATION_TYPE":"U","NORAD_CAT_ID":54131,"ELEMENT_SET_NO":999,"REV_AT_EPOCH":14234,"BSTAR":0.00033212464,"MEAN_MOTION_DOT":1.47e-6,"MEAN_MOTION_DDOT":0},{"OBJECT_NAME":"ONEWEB-0514","OBJECT_ID":"2022-138V","EPOCH":"2025-09-30T04:43:16.179456","MEAN_MOTION":13.19725786,"ECCENTRICITY":0.00019038,"INCLINATION":87.9287,"RA_OF_ASC_NODE":356.6703,"ARG_OF_PERICENTER":97.752,"MEAN_ANOMALY":262.3829,"EPHEMERIS_TYPE":0,"CLASSIFICATION_TYPE":"U","NORAD_CAT_ID":54132,"ELEMENT_SET_NO":999,"REV_AT_EPOCH":14253,"BSTAR":0.00019631801,"MEAN_MOTION_DOT":9.2e-7,"MEAN_MOTION_DDOT":0},{"OBJECT_NAME":"ONEWEB-0515","OBJECT_ID":"2022-138W","EPOCH":"2025-09-30T02:55:01.887168","MEAN_MOTION":13.20772534,"ECCENTRICITY":0.00027478,"INCLINATION":87.9253,"RA_OF_ASC_NODE":326.2774,"ARG_OF_PERICENTER":105.6297,"MEAN_ANOMALY":254.514,"EPHEMERIS_TYPE":0,"CLASSIFICATION_TYPE":"U","NORAD_CAT_ID":54133,"ELEMENT_SET_NO":999,"REV_AT_EPOCH":14497,"BSTAR":4.3540073e-5,"MEAN_MOTION_DOT":3.1e-7,"MEAN_MOTION_DDOT":0},{"OBJECT_NAME":"ONEWEB-0516","OBJECT_ID":"2022-138X","EPOCH":"2025-09-30T05:56:03.076512","MEAN_MOTION":13.19726095,"ECCENTRICITY":0.00017863,"INCLINATION":87.9271,"RA_OF_ASC_NODE":356.6886,"ARG_OF_PERICENTER":106.1403,"MEAN_ANOMALY":253.9926,"EPHEMERIS_TYPE":0,"CLASSIFICATION_TYPE":"U","NORAD_CAT_ID":54134,"ELEMENT_SET_NO":999,"REV_AT_EPOCH":14254,"BSTAR":0.00012605766,"MEAN_MOTION_DOT":6.3e-7,"MEAN_MOTION_DDOT":0},{"OBJECT_NAME":"ONEWEB-0517","OBJECT_ID":"2022-138Y","EPOCH":"2025-09-29T16:42:14.781888","MEAN_MOTION":13.19726512,"ECCENTRICITY":0.00017878,"INCLINATION":87.929,"RA_OF_ASC_NODE":356.7653,"ARG_OF_PERICENTER":89.3097,"MEAN_ANOMALY":270.824,"EPHEMERIS_TYPE":0,"CLASSIFICATION_TYPE":"U","NORAD_CAT_ID":54135,"ELEMENT_SET_NO":999,"REV_AT_EPOCH":14247,"BSTAR":-7.2277653e-5,"MEAN_MOTION_DOT":-1.6e-7,"MEAN_MOTION_DDOT":0},{"OBJECT_NAME":"ONEWEB-0518","OBJECT_ID":"2022-138Z","EPOCH":"2025-09-30T05:53:45.479328","MEAN_MOTION":13.19726992,"ECCENTRICITY":0.00016795,"INCLINATION":87.9277,"RA_OF_ASC_NODE":356.6901,"ARG_OF_PERICENTER":102.7815,"MEAN_ANOMALY":257.3506,"EPHEMERIS_TYPE":0,"CLASSIFICATION_TYPE":"U","NORAD_CAT_ID":54136,"ELEMENT_SET_NO":999,"REV_AT_EPOCH":14254,"BSTAR":0.00015236338,"MEAN_MOTION_DOT":7.4e-7,"MEAN_MOTION_DDOT":0},{"OBJECT_NAME":"ONEWEB-0519","OBJECT_ID":"2022-138AA","EPOCH":"2025-09-30T04:40:59.468736","MEAN_MOTION":13.19726177,"ECCENTRICITY":0.00017449,"INCLINATION":87.9286,"RA_OF_ASC_NODE":356.6571,"ARG_OF_PERICENTER":92.4705,"MEAN_ANOMALY":267.6628,"EPHEMERIS_TYPE":0,"CLASSIFICATION_TYPE":"U","NORAD_CAT_ID":54137,"ELEMENT_SET_NO":999,"REV_AT_EPOCH":14254,"BSTAR":-3.828794e-5,"MEAN_MOTION_DOT":-2.0e-8,"MEAN_MOTION_DDOT":0},{"OBJECT_NAME":"ONEWEB-0520","OBJECT_ID":"2022-138AB","EPOCH":"2025-09-30T05:31:00.605568","MEAN_MOTION":13.19727083,"ECCENTRICITY":0.00015028,"INCLINATION":87.9288,"RA_OF_ASC_NODE":356.6544,"ARG_OF_PERICENTER":103.9089,"MEAN_ANOMALY":256.2211,"EPHEMERIS_TYPE":0,"CLASSIFICATION_TYPE":"U","NORAD_CAT_ID":54138,"ELEMENT_SET_NO":999,"REV_AT_EPOCH":14253,"BSTAR":4.8411752e-5,"MEAN_MOTION_DOT":3.2e-7,"MEAN_MOTION_DDOT":0},{"OBJECT_NAME":"ONEWEB-0521","OBJECT_ID":"2022-138AC","EPOCH":"2025-09-30T06:18:47.966688","MEAN_MOTION":13.19724928,"ECCENTRICITY":0.00018763,"INCLINATION":87.9286,"RA_OF_ASC_NODE":356.6341,"ARG_OF_PERICENTER":92.6817,"MEAN_ANOMALY":267.4531,"EPHEMERIS_TYPE":0,"CLASSIFICATION_TYPE":"U","NORAD_CAT_ID":54139,"ELEMENT_SET_NO":999,"REV_AT_EPOCH":14248,"BSTAR":0.00045544368,"MEAN_MOTION_DOT":1.95e-6,"MEAN_MOTION_DDOT":0},{"OBJECT_NAME":"ONEWEB-0522","OBJECT_ID":"2022-138AD","EPOCH":"2025-09-30T05:49:12.212544","MEAN_MOTION":13.19728091,"ECCENTRICITY":0.00017623,"INCLINATION":87.9286,"RA_OF_ASC_NODE":356.639,"ARG_OF_PERICENTER":101.9835,"MEAN_ANOMALY":258.1495,"EPHEMERIS_TYPE":0,"CLASSIFICATION_TYPE":"U","NORAD_CAT_ID":54140,"ELEMENT_SET_NO":999,"REV_AT_EPOCH":14252,"BSTAR":0.00013289927,"MEAN_MOTION_DOT":6.6e-7,"MEAN_MOTION_DDOT":0},{"OBJECT_NAME":"ONEWEB-0523","OBJECT_ID":"2022-138AE","EPOCH":"2025-09-30T04:25:57.998784","MEAN_MOTION":13.20772791,"ECCENTRICITY":0.0002735,"INCLINATION":87.9243,"RA_OF_ASC_NODE":326.2899,"ARG_OF_PERICENTER":92.1084,"MEAN_ANOMALY":268.0363,"EPHEMERIS_TYPE":0,"CLASSIFICATION_TYPE":"U","NORAD_CAT_ID":54141,"ELEMENT_SET_NO":999,"REV_AT_EPOCH":14498,"BSTAR":1.743956e-5,"MEAN_MOTION_DOT":2.0e-7,"MEAN_MOTION_DDOT":0},{"OBJECT_NAME":"ONEWEB-0524","OBJECT_ID":"2022-138AF","EPOCH":"2025-09-30T02:20:57.777216","MEAN_MOTION":13.20769839,"ECCENTRICITY":0.00026314,"INCLINATION":87.9245,"RA_OF_ASC_NODE":326.308,"ARG_OF_PERICENTER":111.3128,"MEAN_ANOMALY":248.8287,"EPHEMERIS_TYPE":0,"CLASSIFICATION_TYPE":"U","NORAD_CAT_ID":54142,"ELEMENT_SET_NO":999,"REV_AT_EPOCH":14497,"BSTAR":0.00022642032,"MEAN_MOTION_DOT":1.05e-6,"MEAN_MOTION_DDOT":0}]
